#aV2019  7 14  0  0  0.00000000     288 DD+AD WGS84 FIT  NGA
## 2062      0.00000000   300.00000000 58678 0.0000000000000
+   31     1  2  3  5  6  7  8  9 10 11 12 13 14 15 16 17 18
+         19 20 21 22 23 24 25 26 27 28 29 30 31 32  0  0  0
+          0  0  0  0  0  0  0  0  0  0  0  0  0  0  0  0  0
+          0  0  0  0  0  0  0  0  0  0  0  0  0  0  0  0  0
+          0  0  0  0  0  0  0  0  0  0  0  0  0  0  0  0  0
++         2  2  2  2  2  2  2  2  2  2  2  2  2  2  2  2  2
++         2  2  2  2  2  2  2  2  2  2  2  2  2  2  0  0  0
++         0  0  0  0  0  0  0  0  0  0  0  0  0  0  0  0  0
++         0  0  0  0  0  0  0  0  0  0  0  0  0  0  0  0  0
++         0  0  0  0  0  0  0  0  0  0  0  0  0  0  0  0  0
%c cc cc ccc ccc cccc cccc cccc cccc ccccc ccccc ccccc ccccc
%c cc cc ccc ccc cccc cccc cccc cccc ccccc ccccc ccccc ccccc
%f  0.0000000  0.000000000  0.00000000000  0.000000000000000
%f  0.0000000  0.000000000  0.00000000000  0.000000000000000
%i    0    0    0    0      0      0      0      0         0
%i    0    0    0    0      0      0      0      0         0
/*      NGA, ST. LOUIS,MO.                                  
/*   EPHEMERIS COMPUTED FROM 2 DAYS OF DATA                 
/*   EPOCHA v5 SMOOTHER                                     
/*   G1762 IERS2010 SATAF SATAPC                            
*  2019  7 14 12 35  0.00000000
P  1  13105.279236 -22122.617371  -6127.357272    -67.061356                    
V  1   6758.223756  -4235.352656  31031.903984     -0.105096                    
P  2 -19642.438664  11384.844206 -13057.350968   -259.908510                    
V  2   8205.002585 -15850.526147 -25154.253391     -0.086286                    
P  3   7815.081255 -13742.564067 -21375.981131    181.154201                    
V  3  26563.821650   5092.470849   6539.254521     -0.021064                    
P  5 -24718.782303   3247.699283   9326.778997      0.043570                    
V  5 -11478.013993  -4352.742143 -28315.336789     -0.002316                    
P  6 -15654.884776  -3474.990734 -21137.973898    149.844213                    
V  6  16589.795426 -21162.507679  -8759.210371     -0.112308                    
P  7    547.665340 -19888.823782  17626.069878    -64.168282                    
V  7  15784.750604 -15526.395511 -18768.095635     -0.077020                    
P  8   8398.529633 -15655.639703  19705.728917   -151.162275                    
V  8  10184.074202  22861.184562  14042.832008     -0.014229                    
P  9  -7643.190319 -25272.860223  -2875.565275    371.078044                    
V  9   4178.205374   2246.647320 -31284.814350     -0.083526                    
P 10  21317.603975  11451.651379  11243.846124    -15.842268                    
V 10 -14271.733537   -157.821571  27173.329838     -0.129886                    
P 11   8708.492436 -24973.750682   3157.123487   -561.420029                    
V 11   2939.851423   5507.287999  30071.960467      0.093417                    
P 12 -11145.892776  11857.615412 -21169.790335    223.981109                    
V 12 -25481.701275  -6788.441897   9872.582471     -0.036215                    
P 13 -14021.513621   5708.438473  21711.002978    -54.657393                    
V 13  -6681.047872 -26998.301339   2822.817250      0.017590                    
P 14  16137.174146  10516.039694 -18041.357250    -71.574198                    
V 14   4959.514766  23033.155540  17365.587417      0.017975                    
P 15  -7349.864761  16929.309331  18695.085422   -300.955753                    
V 15 -12582.082093 -21181.947700  14423.530589      0.024411                    
P 16  24958.568611    -83.464262   9500.826331    -56.141278                    
V 16  11380.534561   4625.180992 -28853.242747     -0.032077                    
P 17 -14461.723681 -18122.331834 -12631.119404     88.526299                    
V 17  -3277.223058 -16396.382327  26345.685815      0.065975                    
P 18  17110.042370 -20002.878817   2496.917256     69.794900                    
V 18    249.086258   4912.400728  31495.459058      0.030498                    
P 19 -15649.761397 -11901.114104 -18136.490862   -294.277934                    
V 19  -4529.817020 -21954.284788  18682.719396      0.048642                    
P 20  13802.602650  13922.227435  17887.346689    525.946236                    
V 20 -23024.401408    948.497302  16768.507118      0.002066                    
P 21   5059.997213  17534.322973  20147.992256   -154.915921                    
V 21 -14924.169993  18649.964826 -12838.830033      0.070367                    
P 22  15467.511456 -11907.176517 -17746.814803   -730.903100                    
V 22  22830.349294   4328.249463  16865.520852     -0.051164                    
P 23   2268.222971 -22003.632399 -14059.681250   -177.281307                    
V 23   9575.863000  16262.237726 -23734.582173      0.017946                    
P 24 -13985.686095  22217.162783  -2724.898517    -68.813446                    
V 24  -5015.589571    412.710619  31207.472063     -0.004890                    
P 25   3916.059960  15562.426410 -21418.677054   -773.283992                    
V 25 -26322.615478  -4032.717756  -7575.445207     -0.026831                    
P 26  26297.881613   4296.549335   -820.683039    250.990462                    
V 26  -1419.143528   2797.939834 -31401.804448      0.092675                    
P 27  14816.356344  -2337.083461  21827.144970   -184.683231                    
V 27   9691.688262  26173.852813  -3466.390242     -0.107692                    
P 28 -19813.165069 -13470.141711  11957.196199    766.456431                    
V 28  14222.611751   1952.388677  27244.080144     -0.005447                    
P 29   3381.469448  25602.019479  -6215.649963    151.661761                    
V 29  -4125.743863  -6933.573220 -31001.501983     -0.098027                    
P 30  -9135.623695 -13041.969987  21268.904720   -142.950066                    
V 30  18489.524237 -19733.604814  -4359.198466     -0.075404                    
P 31  17155.654882   1987.886708 -20297.461743     24.381626                    
V 31 -16276.623781  19844.245590 -11377.964205     -0.025973                    
P 32  16094.143631  16843.150886 -12803.455915     -3.358835                    
V 32   3643.494030  16082.585403  25489.056166      0.152921                    
EOF
